{
    "links": {
        "self": "http://www.neowsapp.com/rest/v1/neo/3733940?api_key=iIulBulltgU6a56xZRHN4H3l9WmuAYTsLGpBGhQ2"
    },
    "id": "3733940",
    "neo_reference_id": "3733940",
    "name": "(2015 VF65)",
    "designation": "2015 VF65",
    "nasa_jpl_url": "http://ssd.jpl.nasa.gov/sbdb.cgi?sstr=3733940",
    "absolute_magnitude_h": 26.1,
    "estimated_diameter": {
        "kilometers": {
            "estimated_diameter_min": 0.0160160338,
            "estimated_diameter_max": 0.0358129403
        },
        "meters": {
            "estimated_diameter_min": 16.0160337979,
            "estimated_diameter_max": 35.8129403019
        },
        "miles": {
            "estimated_diameter_min": 0.0099518989,
            "estimated_diameter_max": 0.0222531225
        },
        "feet": {
            "estimated_diameter_min": 52.5460443254,
            "estimated_diameter_max": 117.4965270602
        }
    },
    "is_potentially_hazardous_asteroid": false,
    "close_approach_data": [
        {
            "close_approach_date": "1900-08-30",
            "close_approach_date_full": "1900-Aug-30 05:19",
            "epoch_date_close_approach": -2188147260000,
            "relative_velocity": {
                "kilometers_per_second": "9.0195602369",
                "kilometers_per_hour": "32470.4168529502",
                "miles_per_hour": "20175.8542939901"
            },
            "miss_distance": {
                "astronomical": "0.1407186912",
                "lunar": "54.7395708768",
                "kilometers": "21051216.472707744",
                "miles": "13080619.3597611072"
            },
            "orbiting_body": "Earth"
        },
        {
            "close_approach_date": "2015-10-28",
            "close_approach_date_full": "2015-Oct-28 22:14",
            "epoch_date_close_approach": 1446070440000,
            "relative_velocity": {
                "kilometers_per_second": "11.3631853999",
                "kilometers_per_hour": "40907.4674395126",
                "miles_per_hour": "25418.3094209571"
            },
            "miss_distance": {
                "astronomical": "0.0507243667",
                "lunar": "19.7317786463",
                "kilometers": "7588257.215418929",
                "miles": "4715124.3904380602"
            },
            "orbiting_body": "Earth"
        }
    ],
    "orbital_data": {
        "orbit_id": "7",
        "orbit_determination_date": "2017-04-06 08:30:49",
        "first_observation_date": "2015-11-08",
        "last_observation_date": "2015-11-21",
        "data_arc_in_days": 13,
        "observations_used": 24,
        "orbit_uncertainty": "8",
        "minimum_orbit_intersection": ".0501682",
        "jupiter_tisserand_invariant": "3.453",
        "epoch_osculation": "2457338.5",
        "eccentricity": ".5629812902560793",
        "semi_major_axis": "2.170980549928163",
        "inclination": "8.251825632846035",
        "ascending_node_longitude": "51.68304356091879",
        "orbital_period": "1168.375188417634",
        "perihelion_distance": ".9487591188087531",
        "perihelion_argument": "306.4832428589104",
        "aphelion_distance": "3.393201981047573",
        "perihelion_time": "2457295.865440649768",
        "mean_anomaly": "13.136569073219",
        "mean_motion": ".3081202027985196",
        "equinox": "J2000",
        "orbit_class": {
            "orbit_class_type": "APO",
            "orbit_class_description": "Near-Earth asteroid orbits which cross the Earth’s orbit similar to that of 1862 Apollo",
            "orbit_class_range": "a (semi-major axis) > 1.0 AU; q (perihelion) < 1.017 AU"
        }
    },
    "is_sentry_object": false
}